[{"OBJECT_NAME":"KUIPER-00094","OBJECT_ID":"2025-151Z","EPOCH":"2026-03-09T21:52:26.217120","MEAN_MOTION":15.04318495,"ECCENTRICITY":0.00055168,"INCLINATION":51.8894,"RA_OF_ASC_NODE":261.3496,"ARG_OF_PERICENTER":288.9664,"MEAN_ANOMALY":71.071,"EPHEMERIS_TYPE":0,"CLASSIFICATION_TYPE":"U","NORAD_CAT_ID":64839,"ELEMENT_SET_NO":999,"REV_AT_EPOCH":3587,"BSTAR":0.00056295714,"MEAN_MOTION_DOT":7.667e-5,"MEAN_MOTION_DDOT":0},{"OBJECT_NAME":"STARLINK-35255","OBJECT_ID":"2025-207L","EPOCH":"2026-03-09T16:52:45.665184","MEAN_MOTION":15.05644419,"ECCENTRICITY":6.763e-5,"INCLINATION":97.6022,"RA_OF_ASC_NODE":138.68,"ARG_OF_PERICENTER":107.0468,"MEAN_ANOMALY":253.0833,"EPHEMERIS_TYPE":0,"CLASSIFICATION_TYPE":"U","NORAD_CAT_ID":65602,"ELEMENT_SET_NO":999,"REV_AT_EPOCH":2826,"BSTAR":0.00016304298,"MEAN_MOTION_DOT":2.292e-5,"MEAN_MOTION_DDOT":0}]
